start=new Date('2022-01-09T00:00:00.000Z').valueOf();
sats=[{"RA_OF_ASC_NODE":"266.3582","ECCENTRICITY":"0.00012950","FILE":"3266804","OBJECT_NAME":"STARLINK-3264","CLASSIFICATION_TYPE":"U","LAUNCH_DATE":"2021-12-18","MEAN_MOTION_DOT":"-0.00336193","REV_AT_EPOCH":"646","MEAN_ANOMALY":"242.1885","EPOCH":"2022-01-07T13:34:32.915136","APOAPSIS":"349.220","EPHEMERIS_TYPE":"0","ELEMENT_SET_NO":"999","ARG_OF_PERICENTER":"117.9267","OBJECT_ID":"2021-125AU","REF_FRAME":"TEME","RCS_SIZE":"LARGE","PERIOD":"91.504","SEMIMAJOR_AXIS":"6726.484","GP_ID":"193428296","SITE":"AFWTR","MEAN_MOTION":"15.73695270","COUNTRY_CODE":"US","TIME_SYSTEM":"UTC","BSTAR":"-0.00243540000000","TLE_LINE1":"1 50198U 21125AU  22007.56565874 -.00336193  00000-0 -24354-2 0  9998","DECAY_DATE":null,"CENTER_NAME":"EARTH","INCLINATION":"53.2190","MEAN_MOTION_DDOT":"0.0000000000000","MEAN_ELEMENT_THEORY":"SGP4","OBJECT_TYPE":"PAYLOAD","PERIAPSIS":"347.477","TLE_LINE2":"2 50198  53.2190 266.3582 0001295 117.9267 242.1885 15.73695270  6468","NORAD_CAT_ID":"50198"},{"PERIAPSIS":"347.370","TLE_LINE2":"2 50199  53.2187 266.3476 0001676 105.0803 255.0403 15.73643140  6462","NORAD_CAT_ID":"50199","CENTER_NAME":"EARTH","DECAY_DATE":null,"MEAN_ELEMENT_THEORY":"SGP4","OBJECT_TYPE":"PAYLOAD","INCLINATION":"53.2187","MEAN_MOTION_DDOT":"0.0000000000000","COUNTRY_CODE":"US","TIME_SYSTEM":"UTC","TLE_LINE1":"1 50199U 21125AV  22007.56402205 -.00351777  00000-0 -25587-2 0  9991","BSTAR":"-0.00255870000000","SITE":"AFWTR","GP_ID":"193426559","SEMIMAJOR_AXIS":"6726.632","MEAN_MOTION":"15.73643140","OBJECT_ID":"2021-125AV","ARG_OF_PERICENTER":"105.0803","REF_FRAME":"TEME","PERIOD":"91.507","RCS_SIZE":"LARGE","MEAN_ANOMALY":"255.0403","EPHEMERIS_TYPE":"0","APOAPSIS":"349.624","ELEMENT_SET_NO":"999","EPOCH":"2022-01-07T13:32:11.505120","LAUNCH_DATE":"2021-12-18","MEAN_MOTION_DOT":"-0.00351777","REV_AT_EPOCH":"646","RA_OF_ASC_NODE":"266.3476","ECCENTRICITY":"0.00016760","FILE":"3266804","OBJECT_NAME":"STARLINK-3270","CLASSIFICATION_TYPE":"U"},{"ARG_OF_PERICENTER":"124.3437","OBJECT_ID":"2021-125AW","PERIOD":"91.461","RCS_SIZE":"LARGE","REF_FRAME":"TEME","MEAN_ANOMALY":"235.7711","EPOCH":"2022-01-06T23:51:46.770912","ELEMENT_SET_NO":"999","APOAPSIS":"347.116","EPHEMERIS_TYPE":"0","REV_AT_EPOCH":"589","MEAN_MOTION_DOT":"-0.00397107","LAUNCH_DATE":"2021-12-18","ECCENTRICITY":"0.00013410","RA_OF_ASC_NODE":"269.1917","CLASSIFICATION_TYPE":"U","OBJECT_NAME":"STARLINK-3235","FILE":"3266099","PERIAPSIS":"345.312","NORAD_CAT_ID":"50200","TLE_LINE2":"2 50200  53.2202 269.1917 0001341 124.3437 235.7711 15.74444649  5897","DECAY_DATE":null,"CENTER_NAME":"EARTH","MEAN_MOTION_DDOT":"0.0000000000000","INCLINATION":"53.2202","MEAN_ELEMENT_THEORY":"SGP4","OBJECT_TYPE":"PAYLOAD","COUNTRY_CODE":"US","TLE_LINE1":"1 50200U 21125AW  22006.99429133 -.00397107  00000-0 -28054-2 0  9998","BSTAR":"-0.00280540000000","TIME_SYSTEM":"UTC","SEMIMAJOR_AXIS":"6724.349","GP_ID":"193362837","SITE":"AFWTR","MEAN_MOTION":"15.74444649"},{"CENTER_NAME":"EARTH","DECAY_DATE":null,"MEAN_ELEMENT_THEORY":"SGP4","OBJECT_TYPE":"PAYLOAD","INCLINATION":"53.2194","MEAN_MOTION_DDOT":"0.0000000000000","PERIAPSIS":"347.309","TLE_LINE2":"2 50201  53.2194 266.9858 0001031 127.9199 232.1914 15.73816612  5963","NORAD_CAT_ID":"50201","SITE":"AFWTR","GP_ID":"193433759","SEMIMAJOR_AXIS":"6726.138","MEAN_MOTION":"15.73816612","COUNTRY_CODE":"US","TIME_SYSTEM":"UTC","TLE_LINE1":"1 50201U 21125AX  22007.43814312 -.00359267  00000-0 -25964-2 0  9998","BSTAR":"-0.00259640000000","MEAN_ANOMALY":"232.1914","APOAPSIS":"348.696","EPHEMERIS_TYPE":"0","ELEMENT_SET_NO":"999","EPOCH":"2022-01-07T10:30:55.565568","OBJECT_ID":"2021-125AX","ARG_OF_PERICENTER":"127.9199","REF_FRAME":"TEME","RCS_SIZE":"LARGE","PERIOD":"91.497","RA_OF_ASC_NODE":"266.9858","ECCENTRICITY":"0.00010310","OBJECT_NAME":"STARLINK-3255","FILE":"3267038","CLASSIFICATION_TYPE":"U","LAUNCH_DATE":"2021-12-18","MEAN_MOTION_DOT":"-0.00359267","REV_AT_EPOCH":"596"},{"CLASSIFICATION_TYPE":"U","FILE":"3266507","OBJECT_NAME":"STARLINK-3256","ECCENTRICITY":"0.00066770","RA_OF_ASC_NODE":"266.2080","MEAN_MOTION_DOT":"-0.00124729","REV_AT_EPOCH":"645","LAUNCH_DATE":"2021-12-18","ELEMENT_SET_NO":"999","APOAPSIS":"313.537","EPHEMERIS_TYPE":"0","EPOCH":"2022-01-07T10:23:21.746976","MEAN_ANOMALY":"84.6607","RCS_SIZE":"LARGE","PERIOD":"90.704","REF_FRAME":"TEME","OBJECT_ID":"2021-125AY","ARG_OF_PERICENTER":"275.3657","MEAN_MOTION":"15.87579999","SITE":"AFWTR","GP_ID":"193395313","SEMIMAJOR_AXIS":"6687.207","TLE_LINE1":"1 50202U 21125AY  22007.43289059 -.00124729  00000-0 -46130-3 0  9995","BSTAR":"-0.00046130000000","TIME_SYSTEM":"UTC","COUNTRY_CODE":"US","OBJECT_TYPE":"PAYLOAD","MEAN_ELEMENT_THEORY":"SGP4","MEAN_MOTION_DDOT":"0.0000000000000","INCLINATION":"53.2174","CENTER_NAME":"EARTH","DECAY_DATE":null,"NORAD_CAT_ID":"50202","TLE_LINE2":"2 50202  53.2174 266.2080 0006677 275.3657  84.6607 15.87579999  6453","PERIAPSIS":"304.607"},{"MEAN_MOTION":"15.75388223","GP_ID":"193396564","SITE":"AFWTR","SEMIMAJOR_AXIS":"6721.664","TIME_SYSTEM":"UTC","TLE_LINE1":"1 50203U 21125AZ  22007.43811207  .00122948  00000-0  78886-3 0  9994","BSTAR":"0.00078886000000","COUNTRY_CODE":"US","MEAN_ELEMENT_THEORY":"SGP4","OBJECT_TYPE":"PAYLOAD","INCLINATION":"53.2192","MEAN_MOTION_DDOT":"0.0000000000000","CENTER_NAME":"EARTH","DECAY_DATE":null,"TLE_LINE2":"2 50203  53.2192 266.9850 0005898 337.6351  22.4412 15.75388223  6508","NORAD_CAT_ID":"50203","PERIAPSIS":"339.564","OBJECT_NAME":"STARLINK-3257","FILE":"3266507","CLASSIFICATION_TYPE":"U","RA_OF_ASC_NODE":"266.9850","ECCENTRICITY":"0.00058980","LAUNCH_DATE":"2021-12-18","MEAN_MOTION_DOT":"0.00122948","REV_AT_EPOCH":"650","EPHEMERIS_TYPE":"0","APOAPSIS":"347.493","ELEMENT_SET_NO":"999","EPOCH":"2022-01-07T10:30:52.882848","MEAN_ANOMALY":"22.4412","REF_FRAME":"TEME","PERIOD":"91.406","RCS_SIZE":"MEDIUM","OBJECT_ID":"2021-125AZ","ARG_OF_PERICENTER":"337.6351"},{"EPOCH":"2022-01-07T10:29:11.352480","APOAPSIS":"347.644","EPHEMERIS_TYPE":"0","ELEMENT_SET_NO":"999","MEAN_ANOMALY":"204.8910","REF_FRAME":"TEME","RCS_SIZE":"LARGE","PERIOD":"91.467","ARG_OF_PERICENTER":"155.2192","OBJECT_ID":"2021-125BA","FILE":"3266507","OBJECT_NAME":"STARLINK-3254","CLASSIFICATION_TYPE":"U","RA_OF_ASC_NODE":"266.9747","ECCENTRICITY":"0.00016830","LAUNCH_DATE":"2021-12-18","MEAN_MOTION_DOT":"-0.00196785","REV_AT_EPOCH":"649","INCLINATION":"53.2180","MEAN_MOTION_DDOT":"0.0000000000000","OBJECT_TYPE":"PAYLOAD","MEAN_ELEMENT_THEORY":"SGP4","DECAY_DATE":null,"CENTER_NAME":"EARTH","TLE_LINE2":"2 50204  53.2180 266.9747 0001683 155.2192 204.8910 15.74339732  6493","NORAD_CAT_ID":"50204","PERIAPSIS":"345.381","MEAN_MOTION":"15.74339732","SEMIMAJOR_AXIS":"6724.648","SITE":"AFWTR","GP_ID":"193396315","TIME_SYSTEM":"UTC","BSTAR":"-0.00136190000000","TLE_LINE1":"1 50204U 21125BA  22007.43693695 -.00196785  00000-0 -13619-2 0  9998","COUNTRY_CODE":"US"},{"MEAN_MOTION_DOT":"-0.00448303","REV_AT_EPOCH":"650","LAUNCH_DATE":"2021-12-18","ECCENTRICITY":"0.00008770","RA_OF_ASC_NODE":"263.8637","CLASSIFICATION_TYPE":"U","OBJECT_NAME":"STARLINK-3260","FILE":"3266804","OBJECT_ID":"2021-125BB","ARG_OF_PERICENTER":"100.4418","RCS_SIZE":"LARGE","PERIOD":"90.297","REF_FRAME":"TEME","MEAN_ANOMALY":"259.6710","ELEMENT_SET_NO":"999","EPHEMERIS_TYPE":"0","APOAPSIS":"289.645","EPOCH":"2022-01-07T15:18:51.300864","COUNTRY_CODE":"US","BSTAR":"-0.00113290000000","TLE_LINE1":"1 50205U 21125BB  22007.63809376 -.00448303  76726-4 -11329-2 0  9990","TIME_SYSTEM":"UTC","SITE":"AFWTR","GP_ID":"193427558","SEMIMAJOR_AXIS":"6667.196","MEAN_MOTION":"15.94732922","PERIAPSIS":"288.476","NORAD_CAT_ID":"50205","TLE_LINE2":"2 50205  53.2160 263.8637 0000877 100.4418 259.6710 15.94732922  6501","CENTER_NAME":"EARTH","DECAY_DATE":null,"OBJECT_TYPE":"PAYLOAD","MEAN_ELEMENT_THEORY":"SGP4","MEAN_MOTION_DDOT":"0.0000767260000","INCLINATION":"53.2160"},{"TIME_SYSTEM":"UTC","BSTAR":"-0.00270580000000","TLE_LINE1":"1 50206U 21125BC  22007.43778827 -.00374173  00000-0 -27058-2 0  9992","COUNTRY_CODE":"US","MEAN_MOTION":"15.73843815","GP_ID":"193395813","SITE":"AFWTR","SEMIMAJOR_AXIS":"6726.060","TLE_LINE2":"2 50206  53.2186 266.9816 0001120 138.7762 221.3343 15.73843815  4362","NORAD_CAT_ID":"50206","PERIAPSIS":"347.172","OBJECT_TYPE":"PAYLOAD","MEAN_ELEMENT_THEORY":"SGP4","INCLINATION":"53.2186","MEAN_MOTION_DDOT":"0.0000000000000","CENTER_NAME":"EARTH","DECAY_DATE":null,"LAUNCH_DATE":"2021-12-18","REV_AT_EPOCH":"436","MEAN_MOTION_DOT":"-0.00374173","FILE":"3266507","OBJECT_NAME":"STARLINK-3258","CLASSIFICATION_TYPE":"U","RA_OF_ASC_NODE":"266.9816","ECCENTRICITY":"0.00011200","REF_FRAME":"TEME","PERIOD":"91.496","RCS_SIZE":"LARGE","OBJECT_ID":"2021-125BC","ARG_OF_PERICENTER":"138.7762","EPHEMERIS_TYPE":"0","APOAPSIS":"348.679","ELEMENT_SET_NO":"999","EPOCH":"2022-01-07T10:30:24.906528","MEAN_ANOMALY":"221.3343"},{"MEAN_MOTION_DDOT":"0.0000000000000","INCLINATION":"53.2198","MEAN_ELEMENT_THEORY":"SGP4","OBJECT_TYPE":"PAYLOAD","DECAY_DATE":null,"CENTER_NAME":"EARTH","TLE_LINE2":"2 50207  53.2198 268.5541 0005573 267.9131  92.1252 15.75291045  4389","NORAD_CAT_ID":"50207","PERIAPSIS":"340.059","MEAN_MOTION":"15.75291045","SEMIMAJOR_AXIS":"6721.940","SITE":"AFWTR","GP_ID":"193362853","TIME_SYSTEM":"UTC","BSTAR":"-0.00071018000000","TLE_LINE1":"1 50207U 21125BD  22007.12008891 -.00108487  00000-0 -71018-3 0  9995","COUNTRY_CODE":"US","EPOCH":"2022-01-07T02:52:55.681824","APOAPSIS":"347.551","EPHEMERIS_TYPE":"0","ELEMENT_SET_NO":"999","MEAN_ANOMALY":"92.1252","REF_FRAME":"TEME","PERIOD":"91.412","RCS_SIZE":"LARGE","ARG_OF_PERICENTER":"267.9131","OBJECT_ID":"2021-125BD","FILE":"3266108","OBJECT_NAME":"STARLINK-3262","CLASSIFICATION_TYPE":"U","RA_OF_ASC_NODE":"268.5541","ECCENTRICITY":"0.00055730","LAUNCH_DATE":"2021-12-18","REV_AT_EPOCH":"438","MEAN_MOTION_DOT":"-0.00108487"}];
